CCSDS_OMM_VERS = 2.0
CREATION_DATE  = 
ORIGINATOR     = 

OBJECT_NAME    = ORBVIEW 2 (SEASTAR)
OBJECT_ID      = 1997-037A
CENTER_NAME    = EARTH
REF_FRAME      = TEME
TIME_SYSTEM    = UTC
MEAN_ELEMENT_THEORY = SGP/SGP4

EPOCH          = 2025-11-30T10:30:34.404480
MEAN_MOTION    = 14.35401839
ECCENTRICITY   = .0002281
INCLINATION    = 98.8452
RA_OF_ASC_NODE = 131.2031
ARG_OF_PERICENTER = 18.4511
MEAN_ANOMALY   = 341.6756

EPHEMERIS_TYPE = 0
CLASSIFICATION_TYPE = U
NORAD_CAT_ID   = 24883
ELEMENT_SET_NO = 999
REV_AT_EPOCH   = 49423
BSTAR          = .13461963E-3
MEAN_MOTION_DOT = .34E-5
MEAN_MOTION_DDOT = 0

CCSDS_OMM_VERS = 2.0
CREATION_DATE  = 
ORIGINATOR     = 

OBJECT_NAME    = SL-16 R/B
OBJECT_ID      = 1998-043G
CENTER_NAME    = EARTH
REF_FRAME      = TEME
TIME_SYSTEM    = UTC
MEAN_ELEMENT_THEORY = SGP/SGP4

EPOCH          = 2025-11-30T10:47:07.788480
MEAN_MOTION    = 14.26020746
ECCENTRICITY   = .00089748
INCLINATION    = 98.8106
RA_OF_ASC_NODE = 282.1998
ARG_OF_PERICENTER = 306.4990
MEAN_ANOMALY   = 53.5362

EPHEMERIS_TYPE = 0
CLASSIFICATION_TYPE = U
NORAD_CAT_ID   = 25400
ELEMENT_SET_NO = 999
REV_AT_EPOCH   = 42484
BSTAR          = .57751706E-4
MEAN_MOTION_DOT = .93E-6
MEAN_MOTION_DDOT = 0

CCSDS_OMM_VERS = 2.0
CREATION_DATE  = 
ORIGINATOR     = 

OBJECT_NAME    = SL-16 R/B
OBJECT_ID      = 1998-045B
CENTER_NAME    = EARTH
REF_FRAME      = TEME
TIME_SYSTEM    = UTC
MEAN_ELEMENT_THEORY = SGP/SGP4

EPOCH          = 2025-11-30T14:46:35.176224
MEAN_MOTION    = 14.16173857
ECCENTRICITY   = .00076489
INCLINATION    = 71.0127
RA_OF_ASC_NODE = 29.9236
ARG_OF_PERICENTER = 194.6341
MEAN_ANOMALY   = 165.4562

EPHEMERIS_TYPE = 0
CLASSIFICATION_TYPE = U
NORAD_CAT_ID   = 25407
ELEMENT_SET_NO = 999
REV_AT_EPOCH   = 41307
BSTAR          = .13854446E-3
MEAN_MOTION_DOT = .227E-5
MEAN_MOTION_DDOT = 0

CCSDS_OMM_VERS = 2.0
CREATION_DATE  = 
ORIGINATOR     = 

OBJECT_NAME    = ISS (ZARYA)
OBJECT_ID      = 1998-067A
CENTER_NAME    = EARTH
REF_FRAME      = TEME
TIME_SYSTEM    = UTC
MEAN_ELEMENT_THEORY = SGP/SGP4

EPOCH          = 2025-11-30T13:03:31.260384
MEAN_MOTION    = 15.49206888
ECCENTRICITY   = .00036901
INCLINATION    = 51.6312
RA_OF_ASC_NODE = 202.8529
ARG_OF_PERICENTER = 187.0517
MEAN_ANOMALY   = 173.0420

EPHEMERIS_TYPE = 0
CLASSIFICATION_TYPE = U
NORAD_CAT_ID   = 25544
ELEMENT_SET_NO = 999
REV_AT_EPOCH   = 54096
BSTAR          = .15180088E-3
MEAN_MOTION_DOT = .7982E-4
MEAN_MOTION_DDOT = 0

CCSDS_OMM_VERS = 2.0
CREATION_DATE  = 
ORIGINATOR     = 

OBJECT_NAME    = CZ-4B R/B
OBJECT_ID      = 1999-025C
CENTER_NAME    = EARTH
REF_FRAME      = TEME
TIME_SYSTEM    = UTC
MEAN_ELEMENT_THEORY = SGP/SGP4

EPOCH          = 2025-11-30T14:59:52.669824
MEAN_MOTION    = 14.18238823
ECCENTRICITY   = .00360566
INCLINATION    = 98.6788
RA_OF_ASC_NODE = 16.1751
ARG_OF_PERICENTER = 269.7843
MEAN_ANOMALY   = 203.6790

EPHEMERIS_TYPE = 0
CLASSIFICATION_TYPE = U
NORAD_CAT_ID   = 25732
ELEMENT_SET_NO = 999
REV_AT_EPOCH   = 37412
BSTAR          = .65723025E-4
MEAN_MOTION_DOT = .93E-6
MEAN_MOTION_DDOT = 0

CCSDS_OMM_VERS = 2.0
CREATION_DATE  = 
ORIGINATOR     = 

OBJECT_NAME    = OKEAN-O
OBJECT_ID      = 1999-039A
CENTER_NAME    = EARTH
REF_FRAME      = TEME
TIME_SYSTEM    = UTC
MEAN_ELEMENT_THEORY = SGP/SGP4

EPOCH          = 2025-11-30T14:54:31.897728
MEAN_MOTION    = 14.80127465
ECCENTRICITY   = .0000897
INCLINATION    = 97.9621
RA_OF_ASC_NODE = 30.4269
ARG_OF_PERICENTER = 74.6136
MEAN_ANOMALY   = 285.5175

EPHEMERIS_TYPE = 0
CLASSIFICATION_TYPE = U
NORAD_CAT_ID   = 25860
ELEMENT_SET_NO = 999
REV_AT_EPOCH   = 41973
BSTAR          = .11460602E-3
MEAN_MOTION_DOT = .817E-5
MEAN_MOTION_DDOT = 0

CCSDS_OMM_VERS = 2.0
CREATION_DATE  = 
ORIGINATOR     = 

OBJECT_NAME    = SL-16 R/B
OBJECT_ID      = 1999-039B
CENTER_NAME    = EARTH
REF_FRAME      = TEME
TIME_SYSTEM    = UTC
MEAN_ELEMENT_THEORY = SGP/SGP4

EPOCH          = 2025-11-30T15:04:14.390976
MEAN_MOTION    = 14.81557756
ECCENTRICITY   = .00140591
INCLINATION    = 98.0144
RA_OF_ASC_NODE = 28.7775
ARG_OF_PERICENTER = 214.7119
MEAN_ANOMALY   = 145.3178

EPHEMERIS_TYPE = 0
CLASSIFICATION_TYPE = U
NORAD_CAT_ID   = 25861
ELEMENT_SET_NO = 999
REV_AT_EPOCH   = 42219
BSTAR          = .93353473E-4
MEAN_MOTION_DOT = .68E-5
MEAN_MOTION_DDOT = 0

CCSDS_OMM_VERS = 2.0
CREATION_DATE  = 
ORIGINATOR     = 

OBJECT_NAME    = DELTA 2 R/B
OBJECT_ID      = 1999-041E
CENTER_NAME    = EARTH
REF_FRAME      = TEME
TIME_SYSTEM    = UTC
MEAN_ELEMENT_THEORY = SGP/SGP4

EPOCH          = 2025-11-30T09:24:44.350272
MEAN_MOTION    = 14.11349266
ECCENTRICITY   = .05048681
INCLINATION    = 51.7620
RA_OF_ASC_NODE = 337.7346
ARG_OF_PERICENTER = 55.3791
MEAN_ANOMALY   = 309.3687

EPHEMERIS_TYPE = 0
CLASSIFICATION_TYPE = U
NORAD_CAT_ID   = 25876
ELEMENT_SET_NO = 999
REV_AT_EPOCH   = 34900
BSTAR          = .22773785E-3
MEAN_MOTION_DOT = .1167E-4
MEAN_MOTION_DDOT = 0

CCSDS_OMM_VERS = 2.0
CREATION_DATE  = 
ORIGINATOR     = 

OBJECT_NAME    = HELIOS 1B
OBJECT_ID      = 1999-064A
CENTER_NAME    = EARTH
REF_FRAME      = TEME
TIME_SYSTEM    = UTC
MEAN_ELEMENT_THEORY = SGP/SGP4

EPOCH          = 2025-11-30T15:01:17.601024
MEAN_MOTION    = 14.87200853
ECCENTRICITY   = .00022482
INCLINATION    = 98.1753
RA_OF_ASC_NODE = 228.9327
ARG_OF_PERICENTER = 58.6645
MEAN_ANOMALY   = 301.4790

EPHEMERIS_TYPE = 0
CLASSIFICATION_TYPE = U
NORAD_CAT_ID   = 25977
ELEMENT_SET_NO = 999
REV_AT_EPOCH   = 67053
BSTAR          = .21951669E-3
MEAN_MOTION_DOT = .1917E-4
MEAN_MOTION_DDOT = 0

CCSDS_OMM_VERS = 2.0
CREATION_DATE  = 
ORIGINATOR     = 

OBJECT_NAME    = TERRA
OBJECT_ID      = 1999-068A
CENTER_NAME    = EARTH
REF_FRAME      = TEME
TIME_SYSTEM    = UTC
MEAN_ELEMENT_THEORY = SGP/SGP4

EPOCH          = 2025-11-30T14:55:23.838816
MEAN_MOTION    = 14.60929769
ECCENTRICITY   = .00033333
INCLINATION    = 97.9767
RA_OF_ASC_NODE = 26.7498
ARG_OF_PERICENTER = 122.3916
MEAN_ANOMALY   = 354.0457

EPHEMERIS_TYPE = 0
CLASSIFICATION_TYPE = U
NORAD_CAT_ID   = 25994
ELEMENT_SET_NO = 999
REV_AT_EPOCH   = 38061
BSTAR          = .11559237E-3
MEAN_MOTION_DOT = .521E-5
MEAN_MOTION_DDOT = 0

CCSDS_OMM_VERS = 2.0
CREATION_DATE  = 
ORIGINATOR     = 

OBJECT_NAME    = SL-16 R/B
OBJECT_ID      = 2000-006B
CENTER_NAME    = EARTH
REF_FRAME      = TEME
TIME_SYSTEM    = UTC
MEAN_ELEMENT_THEORY = SGP/SGP4

EPOCH          = 2025-11-30T09:26:34.415232
MEAN_MOTION    = 14.15805219
ECCENTRICITY   = .00177483
INCLINATION    = 71.0024
RA_OF_ASC_NODE = 306.6170
ARG_OF_PERICENTER = 325.9476
MEAN_ANOMALY   = 34.0507

EPHEMERIS_TYPE = 0
CLASSIFICATION_TYPE = U
NORAD_CAT_ID   = 26070
ELEMENT_SET_NO = 999
REV_AT_EPOCH   = 33450
BSTAR          = .20118377E-3
MEAN_MOTION_DOT = .348E-5
MEAN_MOTION_DDOT = 0

CCSDS_OMM_VERS = 2.0
CREATION_DATE  = 
ORIGINATOR     = 

OBJECT_NAME    = TITAN 4B R/B
OBJECT_ID      = 2000-047B
CENTER_NAME    = EARTH
REF_FRAME      = TEME
TIME_SYSTEM    = UTC
MEAN_ELEMENT_THEORY = SGP/SGP4

EPOCH          = 2025-11-30T13:04:16.638528
MEAN_MOTION    = 15.08639357
ECCENTRICITY   = .00398404
INCLINATION    = 67.9898
RA_OF_ASC_NODE = 319.1023
ARG_OF_PERICENTER = 158.9268
MEAN_ANOMALY   = 201.3534

EPHEMERIS_TYPE = 0
CLASSIFICATION_TYPE = U
NORAD_CAT_ID   = 26474
ELEMENT_SET_NO = 999
REV_AT_EPOCH   = 37795
BSTAR          = .25172761E-3
MEAN_MOTION_DOT = .3888E-4
MEAN_MOTION_DDOT = 0

