ORBVIEW 2 (SEASTAR)     
1 24883U 97037A   25334.43789820  .00000340  00000+0  13462-3 0  9994
2 24883  98.8452 131.2031 0002281  18.4511 341.6756 14.35401839494239
SL-16 R/B               
1 25400U 98043G   25334.44939570  .00000093  00000+0  57752-4 0  9994
2 25400  98.8106 282.1998 0008974 306.4990  53.5362 14.26020746424841
SL-16 R/B               
1 25407U 98045B   25334.61568491  .00000227  00000+0  13854-3 0  9995
2 25407  71.0127  29.9236 0007648 194.6341 165.4562 14.16173857413079
ISS (ZARYA)             
1 25544U 98067A   25334.54411181  .00007982  00000+0  15180-3 0  9995
2 25544  51.6312 202.8529 0003690 187.0517 173.0420 15.49206888540967
CZ-4B R/B               
1 25732U 99025C   25334.62491516  .00000093  00000+0  65723-4 0  9993
2 25732  98.6788  16.1751 0036056 269.7843 203.6790 14.18238823374121
OKEAN-O                 
1 25860U 99039A   25334.62120252  .00000817  00000+0  11461-3 0  9999
2 25860  97.9621  30.4269 0000897  74.6136 285.5175 14.80127465419737
SL-16 R/B               
1 25861U 99039B   25334.62794434  .00000680  00000+0  93353-4 0  9998
2 25861  98.0144  28.7775 0014059 214.7119 145.3178 14.81557756422196
DELTA 2 R/B             
1 25876U 99041E   25334.39217998  .00001167  00000+0  22774-3 0  9995
2 25876  51.7620 337.7346 0504868  55.3791 309.3687 14.11349266349004
HELIOS 1B               
1 25977U 99064A   25334.62589816  .00001917  00000+0  21952-3 0  9999
2 25977  98.1753 228.9327 0002248  58.6645 301.4790 14.87200853670531
TERRA                   
1 25994U 99068A   25334.62180369  .00000521  00000+0  11559-3 0  9994
2 25994  97.9767  26.7498 0003333 122.3916 354.0457 14.60929769380617
SL-16 R/B               
1 26070U 00006B   25334.39345388  .00000348  00000+0  20118-3 0  9990
2 26070  71.0024 306.6170 0017748 325.9476  34.0507 14.15805219334507
TITAN 4B R/B            
1 26474U 00047B   25334.54463702  .00003888  00000+0  25173-3 0  9999
2 26474  67.9898 319.1023 0039840 158.9268 201.3534 15.08639357377950
